{
  "type" : "FeatureCollection",
  "features" : [{"type":"Feature","id":0,"geometry":{"type":"Point","coordinates":[35.207144811585223,31.906811004979868]},"properties":{"FID":0,"OBJECTID_1":1,"NAME_AR":"مستشفى الناظر للتوليد","Phone_Num":"2955295","Sections":"قسم الطوارئ, قسم الرعاية الصحية,قسم غسيل الكلى"}},{"type":"Feature","id":1,"geometry":{"type":"Point","coordinates":[35.205831336488963,31.905793736438767]},"properties":{"FID":1,"OBJECTID_1":2,"NAME_AR":"مستشفى الرعاية","Phone_Num":"2986420","Sections":"قسم طوارئ ,قسم الجراحة,قسم العناية المركزة"}},{"type":"Feature","id":2,"geometry":{"type":"Point","coordinates":[35.191268137880897,31.898955631657604]},"properties":{"FID":2,"OBJECTID_1":3,"NAME_AR":"مستشفى يافا الجراحي التخصصي","Phone_Num":"2929674","Sections":"قسم طوارئ ,قسم انعاش القلب"}},{"type":"Feature","id":3,"geometry":{"type":"Point","coordinates":[35.202374587630118,31.901208738130922]},"properties":{"FID":3,"OBJECTID_1":4,"NAME_AR":"جمعية اغاثة الطفل","Phone_Num":"2989293","Sections":"قسم رعاية الاطفال ,قسم جراحة"}},{"type":"Feature","id":4,"geometry":{"type":"Point","coordinates":[35.205397372855288,31.899205019334961]},"properties":{"FID":4,"OBJECTID_1":5,"NAME_AR":"مستشفى رام الله الحكومي/المبنى الرئيسي","Phone_Num":"2982207","Sections":"قسم الطوارئ,قسم القلب,قسم العظام"}},{"type":"Feature","id":5,"geometry":{"type":"Point","coordinates":[35.206292210547069,31.899168500469113]},"properties":{"FID":5,"OBJECTID_1":6,"NAME_AR":"مستشفى رام الله الحكومي/ مركز الطوارئ","Phone_Num":"2966941","Sections":"قسم طوارئ الاطفال"}},{"type":"Feature","id":6,"geometry":{"type":"Point","coordinates":[35.191261284901707,31.898954107756211]},"properties":{"FID":6,"OBJECTID_1":7,"NAME_AR":"مستشفى يافا الجراحي التخصصي","Phone_Num":"2929674","Sections":"قسم طوارئ, قسم مختبرات"}},{"type":"Feature","id":7,"geometry":{"type":"Point","coordinates":[35.163286938875615,31.933759287607518]},"properties":{"FID":7,"OBJECTID_1":8,"NAME_AR":"المستشفى الاستشاري","Phone_Num":"2943200","Sections":"قسم الجراحة العامة , قسم الطوارئ,قسم التخدير و الانعاش"}}]
}